STARLINK-31629          
1 59255U 24050B   26068.59575197  .00000509  00000+0  29326-4 0  9996
2 59255  53.1601 181.4675 0001154  93.6915 266.4217 15.30181219110539
YAOGAN-43 01G           
1 60464U 24148G   26068.44348481  .00010133  00000+0  35873-3 0  9993
2 60464  35.0006  62.0013 0007382 306.3543  53.6492 15.28332833 87004
